STARLINK - 2019-029F               
1 44240U 19029F   19146.90747148  .00001690  00000-0  50498-4 0  9992
2 44240  52.9994 162.0087 0001499 187.1048 286.2589 15.40720456   532